[{"OBJECT_NAME":"OBJECT AS","OBJECT_ID":"2023-085AS","EPOCH":"2026-03-09T22:43:55.521696","MEAN_MOTION":15.33336233,"ECCENTRICITY":0.00083243,"INCLINATION":97.4812,"RA_OF_ASC_NODE":180.8852,"ARG_OF_PERICENTER":80.6036,"MEAN_ANOMALY":279.6147,"EPHEMERIS_TYPE":0,"CLASSIFICATION_TYPE":"U","NORAD_CAT_ID":57044,"ELEMENT_SET_NO":999,"REV_AT_EPOCH":15162,"BSTAR":0.00067677795,"MEAN_MOTION_DOT":0.00021782,"MEAN_MOTION_DDOT":0},{"OBJECT_NAME":"STARLINK-35955","OBJECT_ID":"2025-271U","EPOCH":"2026-03-09T11:38:23.757216","MEAN_MOTION":15.30200826,"ECCENTRICITY":0.00015785,"INCLINATION":53.1575,"RA_OF_ASC_NODE":141.011,"ARG_OF_PERICENTER":77.699,"MEAN_ANOMALY":282.4188,"EPHEMERIS_TYPE":0,"CLASSIFICATION_TYPE":"U","NORAD_CAT_ID":66635,"ELEMENT_SET_NO":999,"REV_AT_EPOCH":1753,"BSTAR":0.0012593331,"MEAN_MOTION_DOT":0.00037126,"MEAN_MOTION_DDOT":0}]
